[{"OBJECT_NAME":"ONEWEB-0042","OBJECT_ID":"2020-020T","EPOCH":"2026-03-09T22:29:18.366432","MEAN_MOTION":13.11414995,"ECCENTRICITY":0.00017227,"INCLINATION":87.8867,"RA_OF_ASC_NODE":40.7856,"ARG_OF_PERICENTER":82.5034,"MEAN_ANOMALY":277.6289,"EPHEMERIS_TYPE":0,"CLASSIFICATION_TYPE":"U","NORAD_CAT_ID":45441,"ELEMENT_SET_NO":999,"REV_AT_EPOCH":28965,"BSTAR":-0.0012164144,"MEAN_MOTION_DOT":-4.18e-6,"MEAN_MOTION_DDOT":0},{"OBJECT_NAME":"SL-14 DEB","OBJECT_ID":"1991-056D","EPOCH":"2026-03-09T21:32:18.039264","MEAN_MOTION":13.1413297,"ECCENTRICITY":0.00159596,"INCLINATION":82.5663,"RA_OF_ASC_NODE":219.976,"ARG_OF_PERICENTER":150.8705,"MEAN_ANOMALY":209.3309,"EPHEMERIS_TYPE":0,"CLASSIFICATION_TYPE":"U","NORAD_CAT_ID":45267,"ELEMENT_SET_NO":999,"REV_AT_EPOCH":29118,"BSTAR":-0.00084230434,"MEAN_MOTION_DOT":-2.98e-6,"MEAN_MOTION_DDOT":0}]
